IRIDIUM 63              
1 25286U 98021B   25164.48778138  .00000455  00000+0  14827-3 0  9995
2 25286  86.3976  83.6846 0002076  82.4938 277.6495 14.36544839423318
IRIDIUM 69              
1 25319U 98026A   25164.51176784  .00000614  00000+0  18497-3 0  9994
2 25319  86.3970  96.9765 0004226  60.1556 300.0064 14.40966995422536
IRIDIUM 71              
1 25320U 98026B   25164.51908129  .00000468  00000+0  13900-3 0  9993
2 25320  86.3969  91.6642 0004363  91.5801 268.5899 14.41156339423062
IRIDIUM 73              
1 25344U 98032C   25164.61545331  .00000635  00000+0  15309-3 0  9990
2 25344  86.4415  48.3345 0002458  70.4752 289.6719 14.51713906430049
IRIDIUM 82              
1 25467U 98051A   25164.30502266  .00050207  00000+0  14432-2 0  9998
2 25467  86.3671 111.6473 0082354 312.9027  46.5328 15.32214081423369
